start=new Date('2021-09-11T00:00:00.000Z').valueOf();
sats=[{"REV_AT_EPOCH":"363","APOAPSIS":"441.249","MEAN_ELEMENT_THEORY":"SGP4","MEAN_ANOMALY":"70.7099","CENTER_NAME":"EARTH","NORAD_CAT_ID":"48580","TLE_LINE2":"2 48580  53.0531 279.1682 0002234  25.4780  70.7099 15.42163940  3635","PERIAPSIS":"438.203","EPOCH":"2021-09-10T22:00:00.999936","TIME_SYSTEM":"UTC","REF_FRAME":"TEME","OBJECT_ID":"2021-041AD","LAUNCH_DATE":"2021-05-15","TLE_LINE1":"1 48580U 21041AD  21253.91667824  .00000312  00000-0  16650-4 0  9997","ECCENTRICITY":"0.00022340","ARG_OF_PERICENTER":"25.4780","INCLINATION":"53.0531","BSTAR":"0.00001665000000","RCS_SIZE":"LARGE","RA_OF_ASC_NODE":"279.1682","DECAY_DATE":null,"MEAN_MOTION_DOT":"0.00000312","MEAN_MOTION_DDOT":"0.0000000000000","EPHEMERIS_TYPE":"0","OBJECT_TYPE":"PAYLOAD","COUNTRY_CODE":"US","OBJECT_NAME":"STARLINK-2234","CLASSIFICATION_TYPE":"U","GP_ID":"184476203","ELEMENT_SET_NO":"999","PERIOD":"93.375","SITE":"AFETR","MEAN_MOTION":"15.42163940","FILE":"3112758","SEMIMAJOR_AXIS":"6817.861"},{"TLE_LINE1":"1 48581U 21041AE  21253.91667824  .00045625  00000-0  10527-2 0  9999","LAUNCH_DATE":"2021-05-15","OBJECT_ID":"2021-041AE","RCS_SIZE":"LARGE","ECCENTRICITY":"0.00018480","INCLINATION":"53.0526","ARG_OF_PERICENTER":"33.6710","BSTAR":"0.00105270000000","MEAN_ELEMENT_THEORY":"SGP4","APOAPSIS":"441.094","REV_AT_EPOCH":"363","EPOCH":"2021-09-10T22:00:00.999936","TIME_SYSTEM":"UTC","REF_FRAME":"TEME","MEAN_ANOMALY":"58.7960","CENTER_NAME":"EARTH","TLE_LINE2":"2 48581  53.0526 281.2891 0001848  33.6710  58.7960 15.42127459  3638","PERIAPSIS":"438.574","NORAD_CAT_ID":"48581","PERIOD":"93.377","SITE":"AFETR","MEAN_MOTION":"15.42127459","FILE":"3112758","SEMIMAJOR_AXIS":"6817.969","MEAN_MOTION_DOT":"0.00045625","MEAN_MOTION_DDOT":"0.0000000000000","RA_OF_ASC_NODE":"281.2891","DECAY_DATE":null,"COUNTRY_CODE":"US","OBJECT_NAME":"STARLINK-2235","CLASSIFICATION_TYPE":"U","GP_ID":"184475922","ELEMENT_SET_NO":"999","OBJECT_TYPE":"PAYLOAD","EPHEMERIS_TYPE":"0"},{"SEMIMAJOR_AXIS":"6817.844","SITE":"AFETR","PERIOD":"93.375","MEAN_MOTION":"15.42169635","FILE":"3112758","EPHEMERIS_TYPE":"0","OBJECT_TYPE":"PAYLOAD","OBJECT_NAME":"STARLINK-2236","COUNTRY_CODE":"US","ELEMENT_SET_NO":"999","GP_ID":"184475787","CLASSIFICATION_TYPE":"U","RA_OF_ASC_NODE":"279.8540","DECAY_DATE":null,"MEAN_MOTION_DOT":"-0.00012795","MEAN_MOTION_DDOT":"0.0000000000000","ARG_OF_PERICENTER":"32.0050","INCLINATION":"53.0536","ECCENTRICITY":"0.00021750","BSTAR":"-0.00028490000000","RCS_SIZE":"LARGE","LAUNCH_DATE":"2021-05-15","OBJECT_ID":"2021-041AF","TLE_LINE1":"1 48582U 21041AF  21253.91667824 -.00012795  00000-0 -28490-3 0  9993","MEAN_ANOMALY":"65.7038","TLE_LINE2":"2 48582  53.0536 279.8540 0002175  32.0050  65.7038 15.42169635  3634","NORAD_CAT_ID":"48582","PERIAPSIS":"438.226","CENTER_NAME":"EARTH","EPOCH":"2021-09-10T22:00:00.999936","REF_FRAME":"TEME","TIME_SYSTEM":"UTC","REV_AT_EPOCH":"363","APOAPSIS":"441.192","MEAN_ELEMENT_THEORY":"SGP4"},{"RCS_SIZE":"LARGE","BSTAR":"-0.00000110730000","ARG_OF_PERICENTER":"112.0486","INCLINATION":"53.0570","ECCENTRICITY":"0.00006860","TLE_LINE1":"1 48583U 21041AG  21253.53909584 -.00000298  00000-0 -11073-5 0  9990","OBJECT_ID":"2021-041AG","LAUNCH_DATE":"2021-05-15","REF_FRAME":"TEME","TIME_SYSTEM":"UTC","EPOCH":"2021-09-10T12:56:17.880576","TLE_LINE2":"2 48583  53.0570 309.0274 0000686 112.0486 248.0576 15.06399208 17707","PERIAPSIS":"546.741","NORAD_CAT_ID":"48583","CENTER_NAME":"EARTH","MEAN_ANOMALY":"248.0576","APOAPSIS":"547.691","MEAN_ELEMENT_THEORY":"SGP4","REV_AT_EPOCH":"1770","SEMIMAJOR_AXIS":"6925.351","MEAN_MOTION":"15.06399208","FILE":"3112758","SITE":"AFETR","PERIOD":"95.592","ELEMENT_SET_NO":"999","GP_ID":"184476016","CLASSIFICATION_TYPE":"U","OBJECT_NAME":"STARLINK-2237","COUNTRY_CODE":"US","EPHEMERIS_TYPE":"0","OBJECT_TYPE":"PAYLOAD","MEAN_MOTION_DDOT":"0.0000000000000","MEAN_MOTION_DOT":"-0.00000298","DECAY_DATE":null,"RA_OF_ASC_NODE":"309.0274"},{"RCS_SIZE":"LARGE","BSTAR":"0.00019052000000","ARG_OF_PERICENTER":"114.5790","INCLINATION":"53.0533","ECCENTRICITY":"0.00005300","TLE_LINE1":"1 48584U 21041AH  21253.91667824  .00002557  00000-0  19052-3 0  9992","LAUNCH_DATE":"2021-05-15","OBJECT_ID":"2021-041AH","REF_FRAME":"TEME","TIME_SYSTEM":"UTC","EPOCH":"2021-09-10T22:00:00.999936","PERIAPSIS":"546.878","TLE_LINE2":"2 48584  53.0533 307.3218 0000530 114.5790 274.3227 15.06389835  3580","NORAD_CAT_ID":"48584","CENTER_NAME":"EARTH","MEAN_ANOMALY":"274.3227","APOAPSIS":"547.612","MEAN_ELEMENT_THEORY":"SGP4","REV_AT_EPOCH":"358","SEMIMAJOR_AXIS":"6925.380","FILE":"3112758","MEAN_MOTION":"15.06389835","SITE":"AFETR","PERIOD":"95.593","ELEMENT_SET_NO":"999","CLASSIFICATION_TYPE":"U","GP_ID":"184475881","OBJECT_NAME":"STARLINK-2238","COUNTRY_CODE":"US","EPHEMERIS_TYPE":"0","OBJECT_TYPE":"PAYLOAD","MEAN_MOTION_DDOT":"0.0000000000000","MEAN_MOTION_DOT":"0.00002557","DECAY_DATE":null,"RA_OF_ASC_NODE":"307.3218"},{"MEAN_MOTION_DOT":"0.00002667","MEAN_MOTION_DDOT":"0.0000000000000","RA_OF_ASC_NODE":"307.3303","DECAY_DATE":null,"OBJECT_NAME":"STARLINK-2240","COUNTRY_CODE":"US","ELEMENT_SET_NO":"999","GP_ID":"184475600","CLASSIFICATION_TYPE":"U","EPHEMERIS_TYPE":"0","OBJECT_TYPE":"PAYLOAD","SITE":"AFETR","PERIOD":"95.593","FILE":"3112758","MEAN_MOTION":"15.06382938","SEMIMAJOR_AXIS":"6925.401","MEAN_ELEMENT_THEORY":"SGP4","APOAPSIS":"548.032","REV_AT_EPOCH":"356","EPOCH":"2021-09-10T22:00:00.999936","REF_FRAME":"TEME","TIME_SYSTEM":"UTC","MEAN_ANOMALY":"226.3026","TLE_LINE2":"2 48585  53.0544 307.3303 0001106 102.5881 226.3026 15.06382938  3565","NORAD_CAT_ID":"48585","PERIAPSIS":"546.500","CENTER_NAME":"EARTH","TLE_LINE1":"1 48585U 21041AJ  21253.91667824  .00002667  00000-0  19796-3 0  9990","LAUNCH_DATE":"2021-05-15","OBJECT_ID":"2021-041AJ","RCS_SIZE":"LARGE","ARG_OF_PERICENTER":"102.5881","INCLINATION":"53.0544","ECCENTRICITY":"0.00011060","BSTAR":"0.00019796000000"},{"REV_AT_EPOCH":"356","APOAPSIS":"547.687","MEAN_ELEMENT_THEORY":"SGP4","CENTER_NAME":"EARTH","TLE_LINE2":"2 48586  53.0543 307.3307 0000668 112.1240 256.7728 15.06396311  3563","PERIAPSIS":"546.762","NORAD_CAT_ID":"48586","MEAN_ANOMALY":"256.7728","TIME_SYSTEM":"UTC","REF_FRAME":"TEME","EPOCH":"2021-09-10T22:00:00.999936","LAUNCH_DATE":"2021-05-15","OBJECT_ID":"2021-041AK","TLE_LINE1":"1 48586U 21041AK  21253.91667824  .00002696  00000-0  19981-3 0  9999","BSTAR":"0.00019981000000","ECCENTRICITY":"0.00006680","INCLINATION":"53.0543","ARG_OF_PERICENTER":"112.1240","RCS_SIZE":"LARGE","DECAY_DATE":null,"RA_OF_ASC_NODE":"307.3307","MEAN_MOTION_DDOT":"0.0000000000000","MEAN_MOTION_DOT":"0.00002696","EPHEMERIS_TYPE":"0","OBJECT_TYPE":"PAYLOAD","GP_ID":"184476110","CLASSIFICATION_TYPE":"U","ELEMENT_SET_NO":"999","COUNTRY_CODE":"US","OBJECT_NAME":"STARLINK-2241","FILE":"3112758","MEAN_MOTION":"15.06396311","PERIOD":"95.592","SITE":"AFETR","SEMIMAJOR_AXIS":"6925.360"},{"SEMIMAJOR_AXIS":"6925.384","SITE":"AFETR","PERIOD":"95.593","MEAN_MOTION":"15.06388421","FILE":"3112758","OBJECT_NAME":"STARLINK-2242","COUNTRY_CODE":"US","ELEMENT_SET_NO":"999","GP_ID":"184475694","CLASSIFICATION_TYPE":"U","EPHEMERIS_TYPE":"0","OBJECT_TYPE":"PAYLOAD","MEAN_MOTION_DOT":"0.00002452","MEAN_MOTION_DDOT":"0.0000000000000","RA_OF_ASC_NODE":"307.3243","DECAY_DATE":null,"RCS_SIZE":"LARGE","INCLINATION":"53.0533","ARG_OF_PERICENTER":"96.0635","ECCENTRICITY":"0.00006910","BSTAR":"0.00018350000000","TLE_LINE1":"1 48587U 21041AL  21253.91667824  .00002452  00000-0  18350-3 0  9999","LAUNCH_DATE":"2021-05-15","OBJECT_ID":"2021-041AL","EPOCH":"2021-09-10T22:00:00.999936","REF_FRAME":"TEME","TIME_SYSTEM":"UTC","MEAN_ANOMALY":"237.9580","NORAD_CAT_ID":"48587","TLE_LINE2":"2 48587  53.0533 307.3243 0000691  96.0635 237.9580 15.06388421  3566","PERIAPSIS":"546.771","CENTER_NAME":"EARTH","MEAN_ELEMENT_THEORY":"SGP4","APOAPSIS":"547.728","REV_AT_EPOCH":"356"},{"OBJECT_ID":"2021-041AM","LAUNCH_DATE":"2021-05-15","TLE_LINE1":"1 48588U 21041AM  21253.49947260 -.00000949  00000-0 -44863-4 0  9998","ECCENTRICITY":"0.00004810","INCLINATION":"53.0562","ARG_OF_PERICENTER":"134.1805","BSTAR":"-0.00004486300000","RCS_SIZE":"LARGE","REV_AT_EPOCH":"1783","MEAN_ELEMENT_THEORY":"SGP4","APOAPSIS":"547.569","MEAN_ANOMALY":"225.9224","CENTER_NAME":"EARTH","PERIAPSIS":"546.902","TLE_LINE2":"2 48588  53.0562 299.2155 0000481 134.1805 225.9224 15.06392838 17834","NORAD_CAT_ID":"48588","EPOCH":"2021-09-10T11:59:14.432640","TIME_SYSTEM":"UTC","REF_FRAME":"TEME","PERIOD":"95.593","SITE":"AFETR","FILE":"3112758","MEAN_MOTION":"15.06392838","SEMIMAJOR_AXIS":"6925.371","RA_OF_ASC_NODE":"299.2155","DECAY_DATE":null,"MEAN_MOTION_DOT":"-0.00000949","MEAN_MOTION_DDOT":"0.0000000000000","EPHEMERIS_TYPE":"0","OBJECT_TYPE":"PAYLOAD","COUNTRY_CODE":"US","OBJECT_NAME":"STARLINK-2244","CLASSIFICATION_TYPE":"U","GP_ID":"184476204","ELEMENT_SET_NO":"999"},{"RCS_SIZE":"LARGE","INCLINATION":"53.0546","ARG_OF_PERICENTER":"189.6300","ECCENTRICITY":"0.00005120","BSTAR":"0.00015883000000","TLE_LINE1":"1 48589U 21041AN  21253.49577828  .00002086  00000-0  15883-3 0  9999","LAUNCH_DATE":"2021-05-15","OBJECT_ID":"2021-041AN","EPOCH":"2021-09-10T11:53:55.243392","REF_FRAME":"TEME","TIME_SYSTEM":"UTC","MEAN_ANOMALY":"170.4680","NORAD_CAT_ID":"48589","TLE_LINE2":"2 48589  53.0546 299.2298 0000512 189.6300 170.4680 15.06403191 17830","PERIAPSIS":"546.849","CENTER_NAME":"EARTH","APOAPSIS":"547.558","MEAN_ELEMENT_THEORY":"SGP4","REV_AT_EPOCH":"1783","SEMIMAJOR_AXIS":"6925.339","SITE":"AFETR","PERIOD":"95.592","MEAN_MOTION":"15.06403191","FILE":"3112758","OBJECT_NAME":"STARLINK-2245","COUNTRY_CODE":"US","ELEMENT_SET_NO":"999","GP_ID":"184475923","CLASSIFICATION_TYPE":"U","EPHEMERIS_TYPE":"0","OBJECT_TYPE":"PAYLOAD","MEAN_MOTION_DOT":"0.00002086","MEAN_MOTION_DDOT":"0.0000000000000","RA_OF_ASC_NODE":"299.2298","DECAY_DATE":null}];
